OBJECT_NAME,OBJECT_ID,EPOCH,MEAN_MOTION,ECCENTRICITY,INCLINATION,RA_OF_ASC_NODE,ARG_OF_PERICENTER,MEAN_ANOMALY,EPHEMERIS_TYPE,CLASSIFICATION_TYPE,NORAD_CAT_ID,ELEMENT_SET_NO,REV_AT_EPOCH,BSTAR,MEAN_MOTION_DOT,MEAN_MOTION_DDOT
IRIDIUM 33 DEB,1997-051UE,2024-01-16T22:01:55.223328,14.49974375,.0092191,86.4044,84.7910,88.6571,272.5193,0,U,35921,999,55225,.77628E-2,.31856E-3,0
IRIDIUM 33 DEB,1997-051UN,2024-01-17T23:16:58.829376,14.66158818,.002488,86.3459,270.8813,317.4650,42.4635,0,U,35929,999,77489,.23653E-2,.13096E-3,0
IRIDIUM 33 DEB,1997-051US,2024-01-13T03:58:51.079008,14.37140890,.0019758,86.3437,334.7594,12.9690,45.5094,0,U,36011,999,54477,.11398E-2,.3413E-4,0
IRIDIUM 33 DEB,1997-051VK,2024-01-14T23:57:21.364416,14.64559311,.0028324,86.3295,265.6676,337.2086,22.7866,0,U,36028,999,76814,.25446E-2,.13612E-3,0
IRIDIUM 33 DEB,1997-051VM,2024-01-19T12:52:53.251680,14.40971265,.0016574,86.3229,308.5040,305.5115,54.4537,0,U,36080,999,37411,.13639E-2,.4405E-4,0
IRIDIUM 33 DEB,1997-051VQ,2024-01-15T03:46:31.437120,14.38305531,.0029456,86.3442,333.1714,12.2489,347.9418,0,U,36083,999,75404,.15623E-2,.4796E-4,0
IRIDIUM 33 DEB,1997-051VU,2023-12-26T11:27:36.301536,14.57539489,.0045278,86.2919,263.4119,108.2331,252.3813,0,U,36390,999,77826,.15889E-2,.7351E-4,0
IRIDIUM 33 DEB,1997-051WB,2024-01-19T02:46:53.392800,14.60812252,.0087301,86.4227,78.4783,294.2235,64.9871,0,U,36485,999,56509,.89201E-2,.46242E-3,0
IRIDIUM 33 DEB,1997-051WD,2024-01-19T22:53:03.021216,14.33356379,.0115264,86.3490,91.8593,14.7485,345.7024,0,U,36487,999,59571,.68897E-2,.20507E-3,0
IRIDIUM 33 DEB,1997-051XG,2024-01-14T00:10:01.299072,14.23244035,.0084579,86.1742,283.3048,70.1049,290.9229,0,U,37136,999,75859,.12704E-2,.3E-4,0
IRIDIUM 33 DEB,1997-051XH,2024-01-17T15:12:58.850208,14.41012246,.0027436,86.3590,343.2408,352.0011,8.0747,0,U,37548,999,55484,.27422E-2,.8876E-4,0
IRIDIUM 33 DEB,1997-051XK,2024-01-06T04:38:52.141920,14.51805860,.0003723,86.3881,332.9293,48.8555,311.2971,0,U,37550,999,76027,.12729E-2,.5139E-4,0
IRIDIUM 33 DEB,1997-051XT,2024-01-18T04:09:58.943232,14.75242333,.0048,86.3952,339.5756,114.8772,245.7448,0,U,37558,999,51446,.50095E-2,.34673E-3,0
IRIDIUM 33 DEB,1997-051XX,2024-01-19T05:14:56.156928,14.45342682,.0025233,86.3816,343.1453,272.6637,151.9154,0,U,37562,999,76271,.21614E-2,.7644E-4,0
IRIDIUM 33 DEB,1997-051YA,2024-01-11T02:25:05.010816,14.45694523,.001039,86.3497,313.6816,260.9793,99.0233,0,U,37565,999,55678,.10111E-2,.3599E-4,0
IRIDIUM 33 DEB,1997-051YD,2024-01-20T16:12:09.158400,14.17704717,.0175993,86.3341,99.6769,190.9951,168.7370,0,U,38017,999,67101,.29754E-2,.7077E-4,0
IRIDIUM 33 DEB,1997-051YJ,2024-01-20T02:35:24.872064,14.33516789,.0053926,86.2804,317.5207,153.2031,207.1969,0,U,38022,999,59242,.17091E-2,.4821E-4,0
IRIDIUM 33 DEB,1997-051YQ,2024-01-19T12:34:13.302912,14.42481319,.0026523,86.3367,300.5824,266.0453,93.7716,0,U,38028,999,73118,.93768E-3,.3137E-4,0
IRIDIUM 33 DEB,1997-051YZ,2023-12-30T13:54:35.255808,14.25281865,.0163755,86.3141,104.7063,239.0474,182.0482,0,U,38225,999,52185,.75565E-2,.20512E-3,0
